NORAD_CAT_ID,OBJECT_NAME,OBJECT_TYPE,EPOCH,MEAN_MOTION,ECCENTRICITY,INCLINATION,RA_OF_ASC_NODE,ARG_OF_PERICENTER,MEAN_ANOMALY,BSTAR,MEAN_MOTION_DOT,MEAN_MOTION_DDOT,TLE_LINE0,TLE_LINE1,TLE_LINE2,SEMIMAJOR_AXIS,PERIOD,APOGEE,PERIGEE,DECAYED
51135.0,STARLINK-3363,PAYLOAD,2023-09-27 10:05:18,15.08839302,0.0001577,53.2164,353.6532,117.2924,242.8229,3.0431e-05,1.96e-06,0.0,0 STARLINK-3363,1 51135U 22005AH  23270.42035591  .00000196  00000-0  30431-4 0  9998,2 51135  53.2164 353.6532 0001577 117.2924 242.8229 15.08839302 94844,6917.883,95.438,540.838,538.657,0.0
51135.0,STARLINK-3363,PAYLOAD,2023-09-27 13:16:05,15.08843122,0.0001552,53.2175,353.0599,76.8128,283.3037,0.00020653,3.001e-05,0.0,0 STARLINK-3363,1 51135U 22005AH  23270.55283972  .00003001  00000-0  20653-3 0  9992,2 51135  53.2175 353.0599 0001552  76.8128 283.3037 15.08843122 93742,6917.871,95.437,540.809,538.662,0.0
51135.0,STARLINK-3363,PAYLOAD,2023-09-28 13:06:52,15.08841023,0.0001764,53.219,348.5968,70.6117,289.5065,0.00020291,2.943e-05,0.0,0 STARLINK-3363,1 51135U 22005AH  23271.54644435  .00002943  00000-0  20291-3 0  9999,2 51135  53.2190 348.5968 0001764  70.6117 289.5065 15.08841023 95012,6917.877,95.437,540.963,538.522,0.0
51135.0,STARLINK-3363,PAYLOAD,2023-09-28 14:42:15,15.08842632,0.0001683,53.219,348.2978,74.6314,285.4864,0.00022653,3.319e-05,0.0,0 STARLINK-3363,1 51135U 22005AH  23271.61268328  .00003319  00000-0  22653-3 0  9992,2 51135  53.2190 348.2978 0001683  74.6314 285.4864 15.08842632 93908,6917.872,95.437,540.902,538.573,0.0
51135.0,STARLINK-3363,PAYLOAD,2023-09-29 11:22:16,15.08844706,0.0001633,53.2181,344.4357,91.1113,269.0066,8.8155e-05,1.115e-05,0.0,0 STARLINK-3363,1 51135U 22005AH  23272.47380310  .00001115  00000-0  88155-4 0  9995,2 51135  53.2181 344.4357 0001633  91.1113 269.0066 15.08844706 94034,6917.866,95.437,540.861,538.601,0.0
51135.0,STARLINK-3363,PAYLOAD,2023-09-30 00:05:21,15.08851668,0.0001477,53.2169,342.0584,81.828,278.2879,0.00033799,5.097e-05,0.0,0 STARLINK-3363,1 51135U 22005AH  23273.00372120  .00005097  00000-0  33799-3 0  9991,2 51135  53.2169 342.0584 0001477  81.8280 278.2879 15.08851668 95235,6917.845,95.437,540.731,538.688,0.0
51135.0,STARLINK-3363,PAYLOAD,2023-10-01 04:42:17,15.08853625,0.000154,53.2164,336.7035,82.4707,277.646,0.00021894,3.199e-05,0.0,0 STARLINK-3363,1 51135U 22005AH  23274.19603547  .00003199  00000-0  21894-3 0  9996,2 51135  53.2164 336.7035 0001540  82.4707 277.6460 15.08853625 95417,6917.839,95.437,540.769,538.638,0.0
51135.0,STARLINK-3363,PAYLOAD,2023-10-01 11:03:49,15.08849922,0.0001478,53.2167,335.5143,89.4843,270.6318,9.3991e-05,1.209e-05,0.0,0 STARLINK-3363,1 51135U 22005AH  23274.46099435  .00001209  00000-0  93991-4 0  9999,2 51135  53.2167 335.5143 0001478  89.4843 270.6318 15.08849922 94335,6917.85,95.437,540.738,538.693,0.0
51135.0,STARLINK-3363,PAYLOAD,2023-10-01 20:36:08,15.08840825,0.0001474,53.2167,333.7317,90.3268,269.7893,-8.0601e-05,-1.571e-05,0.0,0 STARLINK-3363,1 51135U 22005AH  23274.85843653 -.00001571  00000-0 -80601-4 0  9999,2 51135  53.2167 333.7317 0001474  90.3268 269.7893 15.08840825 94392,6917.878,95.438,540.763,538.723,0.0
51135.0,STARLINK-3363,PAYLOAD,2023-10-02 02:57:41,15.08837564,0.0001609,53.2183,332.547,93.3081,266.8095,-8.7117e-05,-1.674e-05,0.0,0 STARLINK-3363,1 51135U 22005AH  23275.12340018 -.00001674  00000-0 -87117-4 0  9990,2 51135  53.2183 332.5470 0001609  93.3081 266.8095 15.08837564 95550,6917.888,95.438,540.866,538.64,0.0
51135.0,STARLINK-3363,PAYLOAD,2023-10-02 10:54:38,15.08828602,0.0001661,53.2172,331.057,86.7565,273.3617,-0.00017209,-3.025e-05,0.0,0 STARLINK-3363,1 51135U 22005AH  23275.45460674 -.00003025  00000-0 -17209-3 0  9993,2 51135  53.2172 331.0570 0001661  86.7565 273.3617 15.08828602 95606,6917.915,95.438,540.929,538.631,0.0
51135.0,STARLINK-3363,PAYLOAD,2023-10-02 20:26:56,15.08842954,0.0001704,53.2185,329.2727,87.8016,272.3171,1.1955e-05,-9.8e-07,0.0,0 STARLINK-3363,1 51135U 22005AH  23275.85204049 -.00000098  00000-0  11955-4 0  9998,2 51135  53.2185 329.2727 0001704  87.8016 272.3171 15.08842954 95660,6917.871,95.437,540.915,538.558,0.0
51135.0,STARLINK-3363,PAYLOAD,2023-10-03 10:45:22,15.08931866,0.0001305,53.2161,326.5939,52.1254,307.9856,0.0027441,0.00043766,0.0,0 STARLINK-3363,1 51135U 22005AH  23276.44817597  .00043766  00000-0  27441-2 0  9995,2 51135  53.2161 326.5939 0001305  52.1254 307.9856 15.08931866 95751,6917.6,95.432,540.367,538.562,0.0
51135.0,STARLINK-3363,PAYLOAD,2023-10-04 04:14:11,15.09427704,0.0003317,53.2161,323.3217,99.4018,260.735,0.0099584,0.0016456,0.0,0 STARLINK-3363,1 51135U 22005AH  23277.17652388  .00164560  00000-0  99584-2 0  9994,2 51135  53.2161 323.3217 0003317  99.4018 260.7350 15.09427704 95861,6916.085,95.4,540.244,535.656,0.0
51135.0,STARLINK-3363,PAYLOAD,2023-10-04 14:00:01,15.10231088,0.0001438,53.2155,321.4925,69.9026,342.8348,0.020819,0.00362018,0.0,0 STARLINK-3363,1 51135U 22005AH  23277.58334491  .00362018  00000-0  20819-1 0  9993,2 51135  53.2155 321.4925 0001438  69.9026 342.8348 15.10231088 95928,6913.632,95.35,536.491,534.502,0.0
51135.0,STARLINK-3363,PAYLOAD,2023-10-04 22:00:01,15.10462037,0.0001302,53.2155,319.9907,78.0836,348.1345,0.0011053,0.00018148,0.0,0 STARLINK-3363,1 51135U 22005AH  23277.91668981  .00018148  00000-0  11053-2 0  9997,2 51135  53.2155 319.9907 0001302  78.0836 348.1345 15.10462037 95971,6912.927,95.335,535.692,533.892,0.0
51135.0,STARLINK-3363,PAYLOAD,2023-10-05 14:00:01,15.10544804,0.0001343,53.2153,316.992,73.5261,19.7379,-0.023971,-0.00379591,0.0,0 STARLINK-3363,1 51135U 22005AH  23278.58334491 -.00379591  00000-0 -23971-1 0  9992,2 51135  53.2153 316.9920 0001343  73.5261  19.7379 15.10544804 96082,6912.674,95.33,535.468,533.611,0.0
51135.0,STARLINK-3363,PAYLOAD,2023-10-05 22:00:00,15.10254909,0.0001306,53.2154,315.4901,84.6089,22.15,-0.028216,-0.00439527,0.0,0 STARLINK-3363,1 51135U 22005AH  23278.91667824 -.00439527  00000-0 -28216-1 0  9991,2 51135  53.2154 315.4901 0001306  84.6089  22.1500 15.10254909 96130,6913.559,95.348,536.327,534.521,0.0
51135.0,STARLINK-3363,PAYLOAD,2023-10-06 14:00:01,15.09601934,0.0001457,53.2153,312.4932,73.5272,59.1364,-0.028159,-0.00431293,0.0,0 STARLINK-3363,1 51135U 22005AH  23279.58335648 -.00431293  00000-0 -28159-1 0  9999,2 51135  53.2153 312.4932 0001457  73.5272  59.1364 15.09601934 96239,6915.552,95.389,538.425,536.41,0.0
51135.0,STARLINK-3363,PAYLOAD,2023-10-06 19:46:18,15.09768367,0.0001705,53.216,311.4119,65.0047,295.1122,-0.010856,-0.00173299,0.0,0 STARLINK-3363,1 51135U 22005AH  23279.82382373 -.00173299  00000-0 -10856-1 0  9997,2 51135  53.2160 311.4119 0001705  65.0047 295.1122 15.09768367 95142,6915.044,95.379,538.088,535.73,0.0
51135.0,STARLINK-3363,PAYLOAD,2023-10-07 08:29:14,15.09237731,0.0002285,53.2167,309.0326,40.4567,319.6595,-0.014495,-0.00226285,0.0,0 STARLINK-3363,1 51135U 22005AH  23280.35364337 -.00226285  00000-0 -14495-1 0  9994,2 51135  53.2167 309.0326 0002285  40.4567 319.6595 15.09237731 96345,6916.665,95.412,540.11,536.949,0.0
51135.0,STARLINK-3363,PAYLOAD,2023-10-07 13:15:22,15.09131985,0.0001555,53.2165,308.1402,105.037,255.0794,-0.012528,-0.00195861,0.0,0 STARLINK-3363,1 51135U 22005AH  23280.55234296 -.00195861  00000-0 -12528-1 0  9996,2 51135  53.2165 308.1402 0001555 105.0370 255.0794 15.09131985 95254,6916.988,95.419,539.929,537.777,0.0
51135.0,STARLINK-3363,PAYLOAD,2023-10-08 06:00:00,15.08866095,0.0001519,53.216,305.0091,90.4377,101.2159,-0.003434,-0.00054565,0.0,0 STARLINK-3363,1 51135U 22005AH  23281.25001157 -.00054565  00000-0 -34340-2 0  9994,2 51135  53.2160 305.0091 0001519  90.4377 101.2159 15.08866095 96482,6917.801,95.436,540.716,538.615,0.0
51135.0,STARLINK-3363,PAYLOAD,2023-10-08 14:00:01,15.08817907,0.0001474,53.2158,303.5133,86.8069,116.4593,0.0025963,0.00041249,0.0,0 STARLINK-3363,1 51135U 22005AH  23281.58334491  .00041249  00000-0  25963-2 0  9994,2 51135  53.2158 303.5133 0001474  86.8069 116.4593 15.08817907  5754,6917.948,95.439,540.833,538.793,0.0
51135.0,STARLINK-3363,PAYLOAD,2023-10-08 22:00:00,15.08822223,0.0001471,53.216,302.0152,98.1683,116.693,0.0041647,0.00066587,0.0,0 STARLINK-3363,1 51135U 22005AH  23281.91667824  .00066587  00000-0  41647-2 0  9999,2 51135  53.2160 302.0152 0001471  98.1683 116.6930 15.08822223 96582,6917.935,95.439,540.817,538.782,0.0
51135.0,STARLINK-3363,PAYLOAD,2023-10-09 14:00:01,15.08807976,0.0001521,53.2157,299.0241,77.4662,160.632,0.00038158,5.785e-05,0.0,0 STARLINK-3363,1 51135U 22005AH  23282.58334491  .00005785  00000-0  38158-3 0  9991,2 51135  53.2157 299.0241 0001521  77.4662 160.6320 15.08807976 96686,6917.978,95.44,540.895,538.791,0.0
51135.0,STARLINK-3363,PAYLOAD,2023-10-09 22:00:00,15.08790996,0.0001505,53.2158,297.526,86.2672,163.3958,0.0042467,0.00067858,0.0,0 STARLINK-3363,1 51135U 22005AH  23282.91667824  .00067858  00000-0  42467-2 0  9993,2 51135  53.2158 297.5260 0001505  86.2672 163.3958 15.08790996  5806,6918.03,95.441,540.936,538.854,0.0
51135.0,STARLINK-3363,PAYLOAD,2023-10-10 06:00:02,15.08877142,0.0001571,53.2158,296.031,86.8594,174.4374,-0.0051,-0.00080629,0.0,0 STARLINK-3363,1 51135U 22005AH  23283.25002315 -.00080629  00000-0 -51000-2 0  9995,2 51135  53.2158 296.0310 0001571  86.8594 174.4374 15.08877142 96789,6917.767,95.435,540.719,538.545,0.0
51135.0,STARLINK-3363,PAYLOAD,2023-10-10 14:00:01,15.08809628,0.0001552,53.2153,294.5349,86.7476,186.0899,0.0010245,0.00016041,0.0,0 STARLINK-3363,1 51135U 22005AH  23283.58334491  .00016041  00000-0  10245-2 0  9995,2 51135  53.2153 294.5349 0001552  86.7476 186.0899 15.08809628  5804,6917.973,95.439,540.912,538.765,0.0
51135.0,STARLINK-3363,PAYLOAD,2023-10-10 22:00:01,15.08798577,0.0001564,53.2153,293.0369,98.3819,186.0905,0.0044923,0.00071855,0.0,0 STARLINK-3363,1 51135U 22005AH  23283.91668981  .00071855  00000-0  44923-2 0  9990,2 51135  53.2153 293.0369 0001564  98.3819 186.0905 15.08798577 96889,6918.007,95.44,540.954,538.79,0.0
